COSMOS 1933             
1 18958U 88020A   26004.30858611  .00006071  00000+0  30264-3 0  9994
2 18958  82.5158 314.5768 0006128  70.7316 289.4580 15.17353348 40467
SL-3 R/B                
1 19046U 88032B   26004.26099287  .00006861  00000+0  32750-3 0  9996
2 19046  97.5099 347.8311 0028467  98.0357 262.4109 15.19022191 42323
SL-16 R/B               
1 19120U 88039B   26004.01348060  .00000251  00000+0  14151-3 0  9997
2 19120  71.0135 205.3034 0019558  77.9795 282.3521 14.19602160949208
COSMOS 1953             
1 19210U 88050A   25363.34859606  .00008063  00000+0  30114-3 0  9992
2 19210  82.5080 228.9139 0012535  18.6006 341.5688 15.27141359 27045
SL-8 R/B                
1 19257U 88053B   26004.07657891  .00000442  00000+0  15165-3 0  9993
2 19257  74.0462 231.5531 0019039  67.2851  43.3879 14.38875761967309
COSMOS 1975             
1 19573U 88093A   26004.19738555  .00008902  00000+0  33551-3 0  9996
2 19573  82.5188 182.3402 0012541  41.6713 318.5479 15.26853716  9565
SL-14 R/B               
1 19574U 88093B   26004.26467106  .00000887  00000+0  99497-4 0  9992
2 19574  82.5318 102.5303 0019323 249.8725 131.5304 14.85580157991475
SL-16 R/B               
1 19650U 88102B   26004.20310634 -.00000164  00000+0 -58523-4 0  9990
2 19650  71.0003 287.1790 0011915 112.9669 247.2712 14.16141992917762
INTERCOSMOS 24          
1 20261U 89080A   26003.67034662  .00000813  00000+0  23038-3 0  9991
2 20261  82.6069 146.6966 1188896  83.6671 289.8179 12.59476233658616
SL-14 R/B               
1 20262U 89080C   26004.06563362  .00000476  00000+0  14224-3 0  9992
2 20262  82.5913 214.6861 1230139 332.5650  21.5317 12.50432593652076
DELTA 1 R/B             
1 20323U 89089B   26004.19589755  .00000648  00000+0  16931-3 0  9995
2 20323  97.0739 221.8735 0068338 327.5448  32.1556 14.50595580886383
ARIANE 40 R/B           
1 20443U 90005H   26004.18579953  .00000544  00000+0  18669-3 0  9991
2 20443  98.3209  66.7259 0010750  43.8902 316.3139 14.39818785883526
